{
  "type": "FeatureCollection",
  "features": [
    {
      "type": "Feature",
      "properties": {
        "norad_id": 30389,
        "name": "FENGYUN 1C DEB",
        "group": "fengyun-1c-debris",
        "lat": -7.914544128385999,
        "lon": -112.17636624068581,
        "alt_km": 740.1454433968893,
        "timestamp": "2025-12-13T18:50:04.706855+00:00",
        "meta_object_name": "FENGYUN 1C DEB",
        "meta_object_id": "1999-025ADC",
        "meta_epoch": "2025-12-13T04:45:47.806272",
        "meta_mean_motion": 14.44071834,
        "meta_eccentricity": 0.00142658,
        "meta_inclination": 98.8373,
        "meta_ra_of_asc_node": 68.4542,
        "meta_arg_of_pericenter": 219.7053,
        "meta_mean_anomaly": 161.9934,
        "meta_ephemeris_type": 0,
        "meta_classification_type": "U",
        "meta_norad_cat_id": 30389,
        "meta_element_set_no": 999,
        "meta_rev_at_epoch": 97793,
        "meta_bstar": 0.0035986031,
        "meta_mean_motion_dot": 0.00012307,
        "meta_mean_motion_ddot": 0,
        "tle_line1": "1 30389U 99025ADC 25347.19846998  .00012307  00000+0  35986-2 0  9998",
        "tle_line2": "2 30389  98.8373  68.4542 0014265 219.7053 161.9934 14.44071834977931"
      },
      "geometry": {
        "type": "Point",
        "coordinates": [
          -112.17636624068581,
          -7.914544128385999
        ]
      }
    },
    {
      "type": "Feature",
      "properties": {
        "norad_id": 30390,
        "name": "FENGYUN 1C DEB",
        "group": "fengyun-1c-debris",
        "lat": -23.312829214891533,
        "lon": 74.8427482582479,
        "alt_km": 846.5448709336406,
        "timestamp": "2025-12-13T18:50:04.706867+00:00",
        "meta_object_name": "FENGYUN 1C DEB",
        "meta_object_id": "1999-025ADD",
        "meta_epoch": "2025-12-13T05:48:24.911136",
        "meta_mean_motion": 14.29742123,
        "meta_eccentricity": 0.00680093,
        "meta_inclination": 98.8231,
        "meta_ra_of_asc_node": 70.4551,
        "meta_arg_of_pericenter": 163.2079,
        "meta_mean_anomaly": 260.858,
        "meta_ephemeris_type": 0,
        "meta_classification_type": "U",
        "meta_norad_cat_id": 30390,
        "meta_element_set_no": 999,
        "meta_rev_at_epoch": 97391,
        "meta_bstar": 0.0030512012,
        "meta_mean_motion_dot": 7.993e-05,
        "meta_mean_motion_ddot": 0,
        "tle_line1": "1 30390U 99025ADD 25347.24195499  .00007993  00000+0  30512-2 0  9994",
        "tle_line2": "2 30390  98.8231  70.4551 0068009 163.2079 260.8580 14.29742123973914"
      },
      "geometry": {
        "type": "Point",
        "coordinates": [
          74.8427482582479,
          -23.312829214891533
        ]
      }
    },
    {
      "type": "Feature",
      "properties": {
        "norad_id": 30391,
        "name": "FENGYUN 1C DEB",
        "group": "fengyun-1c-debris",
        "lat": -18.841719488873697,
        "lon": -149.2497679151577,
        "alt_km": 817.0872082129581,
        "timestamp": "2025-12-13T18:50:04.706877+00:00",
        "meta_object_name": "FENGYUN 1C DEB",
        "meta_object_id": "1999-025ADE",
        "meta_epoch": "2025-12-13T02:55:14.384928",
        "meta_mean_motion": 14.16240294,
        "meta_eccentricity": 0.00714322,
        "meta_inclination": 98.7808,
        "meta_ra_of_asc_node": 33.1198,
        "meta_arg_of_pericenter": 260.9211,
        "meta_mean_anomaly": 159.932,
        "meta_ephemeris_type": 0,
        "meta_classification_type": "U",
        "meta_norad_cat_id": 30391,
        "meta_element_set_no": 999,
        "meta_rev_at_epoch": 96884,
        "meta_bstar": 0.001659488,
        "meta_mean_motion_dot": 3.327e-05,
        "meta_mean_motion_ddot": 0,
        "tle_line1": "1 30391U 99025ADE 25347.12169427  .00003327  00000+0  16595-2 0  9996",
        "tle_line2": "2 30391  98.7808  33.1198 0071432 260.9211 159.9320 14.16240294968848"
      },
      "geometry": {
        "type": "Point",
        "coordinates": [
          -149.2497679151577,
          -18.841719488873697
        ]
      }
    },
    {
      "type": "Feature",
      "properties": {
        "norad_id": 30392,
        "name": "FENGYUN 1C DEB",
        "group": "fengyun-1c-debris",
        "lat": 22.185894563679767,
        "lon": -170.0424542996731,
        "alt_km": 993.2941673678888,
        "timestamp": "2025-12-13T18:50:04.706888+00:00",
        "meta_object_name": "FENGYUN 1C DEB",
        "meta_object_id": "1999-025ADF",
        "meta_epoch": "2025-12-13T01:22:14.718720",
        "meta_mean_motion": 14.07454221,
        "meta_eccentricity": 0.01809879,
        "meta_inclination": 98.786,
        "meta_ra_of_asc_node": 5.6336,
        "meta_arg_of_pericenter": 355.9883,
        "meta_mean_anomaly": 75.9511,
        "meta_ephemeris_type": 0,
        "meta_classification_type": "U",
        "meta_norad_cat_id": 30392,
        "meta_element_set_no": 999,
        "meta_rev_at_epoch": 96675,
        "meta_bstar": 0.00099063277,
        "meta_mean_motion_dot": 1.893e-05,
        "meta_mean_motion_ddot": 0,
        "tle_line1": "1 30392U 99025ADF 25347.05711480  .00001893  00000+0  99063-3 0  9999",
        "tle_line2": "2 30392  98.7860   5.6336 0180987 355.9883  75.9511 14.07454221966755"
      },
      "geometry": {
        "type": "Point",
        "coordinates": [
          -170.0424542996731,
          22.185894563679767
        ]
      }
    },
    {
      "type": "Feature",
      "properties": {
        "norad_id": 30393,
        "name": "FENGYUN 1C DEB",
        "group": "fengyun-1c-debris",
        "lat": -37.006645503086986,
        "lon": -141.418053394361,
        "alt_km": 864.5158502840231,
        "timestamp": "2025-12-13T18:50:04.706899+00:00",
        "meta_object_name": "FENGYUN 1C DEB",
        "meta_object_id": "1999-025ADG",
        "meta_epoch": "2025-12-13T02:25:59.430720",
        "meta_mean_motion": 13.98984504,
        "meta_eccentricity": 0.00694792,
        "meta_inclination": 99.1646,
        "meta_ra_of_asc_node": 44.8876,
        "meta_arg_of_pericenter": 258.9839,
        "meta_mean_anomaly": 119.0565,
        "meta_ephemeris_type": 0,
        "meta_classification_type": "U",
        "meta_norad_cat_id": 30393,
        "meta_element_set_no": 999,
        "meta_rev_at_epoch": 96335,
        "meta_bstar": 0.00040603502,
        "meta_mean_motion_dot": 5.53e-06,
        "meta_mean_motion_ddot": 0,
        "tle_line1": "1 30393U 99025ADG 25347.10138230  .00000553  00000+0  40604-3 0  9991",
        "tle_line2": "2 30393  99.1646  44.8876 0069479 258.9839 119.0565 13.98984504963355"
      },
      "geometry": {
        "type": "Point",
        "coordinates": [
          -141.418053394361,
          -37.006645503086986
        ]
      }
    },
    {
      "type": "Feature",
      "properties": {
        "norad_id": 30394,
        "name": "FENGYUN 1C DEB",
        "group": "fengyun-1c-debris",
        "lat": 3.171411820143582,
        "lon": -163.39905744096467,
        "alt_km": 896.7461005219511,
        "timestamp": "2025-12-13T18:50:04.706909+00:00",
        "meta_object_name": "FENGYUN 1C DEB",
        "meta_object_id": "1999-025ADH",
        "meta_epoch": "2025-12-13T07:44:11.999904",
        "meta_mean_motion": 13.95788201,
        "meta_eccentricity": 0.00898744,
        "meta_inclination": 99.4353,
        "meta_ra_of_asc_node": 15.5997,
        "meta_arg_of_pericenter": 99.8513,
        "meta_mean_anomaly": 273.4999,
        "meta_ephemeris_type": 0,
        "meta_classification_type": "U",
        "meta_norad_cat_id": 30394,
        "meta_element_set_no": 999,
        "meta_rev_at_epoch": 96112,
        "meta_bstar": 0.00033845733,
        "meta_mean_motion_dot": 4.32e-06,
        "meta_mean_motion_ddot": 0,
        "tle_line1": "1 30394U 99025ADH 25347.32236111  .00000432  00000+0  33846-3 0  9999",
        "tle_line2": "2 30394  99.4353  15.5997 0089874  99.8513 273.4999 13.95788201961127"
      },
      "geometry": {
        "type": "Point",
        "coordinates": [
          -163.39905744096467,
          3.171411820143582
        ]
      }
    },
    {
      "type": "Feature",
      "properties": {
        "norad_id": 30395,
        "name": "FENGYUN 1C DEB",
        "group": "fengyun-1c-debris",
        "lat": -31.661842772789704,
        "lon": 8.880506867651599,
        "alt_km": 843.3989662522972,
        "timestamp": "2025-12-13T18:50:04.706920+00:00",
        "meta_object_name": "FENGYUN 1C DEB",
        "meta_object_id": "1999-025ADJ",
        "meta_epoch": "2025-12-13T00:19:21.476928",
        "meta_mean_motion": 13.96692195,
        "meta_eccentricity": 0.01604042,
        "meta_inclination": 98.9307,
        "meta_ra_of_asc_node": 2.5667,
        "meta_arg_of_pericenter": 25.3916,
        "meta_mean_anomaly": 27.902,
        "meta_ephemeris_type": 0,
        "meta_classification_type": "U",
        "meta_norad_cat_id": 30395,
        "meta_element_set_no": 999,
        "meta_rev_at_epoch": 96027,
        "meta_bstar": 0.00058636598,
        "meta_mean_motion_dot": 8.64e-06,
        "meta_mean_motion_ddot": 0,
        "tle_line1": "1 30395U 99025ADJ 25347.01344302  .00000864  00000+0  58637-3 0  9992",
        "tle_line2": "2 30395  98.9307   2.5667 0160404  25.3916  27.9020 13.96692195960270"
      },
      "geometry": {
        "type": "Point",
        "coordinates": [
          8.880506867651599,
          -31.661842772789704
        ]
      }
    }
  ]
}